STARLINK-35687          
1 66524U 25265J   25338.16670139 -.01850062  00000+0 -13740-1 0  9996
2 66524  42.9999 104.7512 0001339 266.5024 314.1266 15.75126964  3617
STARLINK-35975          
1 66525U 25265K   25338.16670139 -.01939417  00000+0 -14475-1 0  9995
2 66525  42.9999 104.7469 0001188 243.5376 339.0123 15.75182343  3617
STARLINK-35932          
1 66526U 25265L   25338.16670139 -.02006375  00000+0 -14677-1 0  9999
2 66526  42.9998 104.7422 0001610 261.0643 323.3935 15.75205102  3502
STARLINK-35935          
1 66527U 25265M   25338.16670139 -.01949654  00000+0 -14560-1 0  9996
2 66527  42.9999 104.7374 0000608 259.8052 326.5685 15.75194264  3610
STARLINK-35928          
1 66528U 25265N   25338.16670139 -.01946088  00000+0 -14526-1 0  9997
2 66528  43.0000 104.7326 0001304 250.6396 337.6564 15.75190217  3610
STARLINK-35933          
1 66529U 25265P   25338.16670139 -.01956777  00000+0 -14612-1 0  9990
2 66529  43.0000 104.7272 0001270 244.7666 345.4349 15.75201345  3610
STARLINK-35961          
1 66530U 25265Q   25338.16670139 -.01939184  00000+0 -14468-1 0  9994
2 66530  42.9999 104.7230 0001226 266.0148 326.1142 15.75188865  3612
STARLINK-35960          
1 66531U 25265R   25338.16670139 -.01917697  00000+0 -14291-1 0  9994
2 66531  43.0000 104.7179 0001447 256.1672 337.8824 15.75172109  3617
STARLINK-35914          
1 66532U 25265S   25338.16670139 -.01854968  00000+0 -13780-1 0  9998
2 66532  42.9997 104.7134 0001396 250.9147 345.0494 15.75129504  3619
STARLINK-35707          
1 66533U 25265T   25338.16670139 -.01852786  00000+0 -13761-1 0  9994
2 66533  42.9999 104.7086 0001237 263.0217 334.8554 15.75131191  3613
STARLINK-35976          
1 66534U 25265U   25338.16670139 -.01918457  00000+0 -14305-1 0  9998
2 66534  43.0002 104.7043 0001719 275.3814 324.4396 15.75157715  3617
STARLINK-35514          
1 66535U 25265V   25338.16670139 -.01852563  00000+0 -13765-1 0  9993
2 66535  43.0003 104.6992 0001630 278.6463 323.0870 15.75116612  3612
